{{Infobox planet
|width           = 25em
|background      = #FFFFC0 | name=小行星325
 | discoverer=[[马克斯·沃夫|马克斯·沃夫]]
 | discovered=1892年3月4日
 | alt_names=
 | named_after = [[海德堡|海德堡]]
 | mp_category=[[小行星带|主带小行星]]
 | epoch=2011年8月27日 ([[儒略日|JD]] 2453400.5)
 | eccentricity=0.1604372718048322
 | semimajor=3.208686847405336AU
 | perihelion=2.693893883531576AU
 | inclination=8.559232330830744°
 | asc_node=344.9276310015904°
 | arg_peri=68.18895701089423°
 | mean_anomaly=59.33204218121443[[角度|°]]
 | period=2099.372132536998[[日|日]]<br/>(5.75[[儒略年|儒略年]])
 | aphelion=3.723479811279097[[天文单位|AU]]
 | dimensions=75.72千米		
 | avg_speed=16.64千米/秒
 | mass=未知
 | density=未知
 | surface_grav=未知
 | escape_velocity=未知
 | rotation=6.737小时
 | spectral_type=[[M-型小行星|M型]]
 | abs_magnitude=8.65
 | albedo=0.1068
 | single_temperature=未知}}

'''小行星325'''（[[英语|英语]]：'''325 Heidelberga'''）是一颗[[M-型小行星|M型]][[小行星带|主带小行星]]，于1892年3月4日由[[德国|德国]][[天文学家|天文学家]][[马克斯·沃夫|马克斯·沃夫]]在[[海德堡|海德堡]]发现<ref>[http://ssd.jpl.nasa.gov/sbdb.cgi#top JPL Small-Body Database Browser]</ref>。

==参考资料==
{{reflist}}

{{Minor Planet Number|[[小行星324|324 Bamberga]]|[[小行星326|326 Tamara]]}}

{{Beltasteroid-stub}}

[[Category:1892年发现的小行星|Category:1892年发现的小行星]]
[[Category:小行星带天体|Category:小行星带天体]]
[[Category:以地名命名的小行星|Category:以地名命名的小行星]]